ONEWEB-0156             
1 48052U 21025L   26122.03072104  .00000347  00000+0  91478-3 0  9994
2 48052  87.8964 329.4112 0001620  88.9406 271.1909 13.13470059247510
ONEWEB-0161             
1 48053U 21025M   26122.31003162 -.00000001  00000+0 -38682-4 0  9992
2 48053  87.8952 329.3599 0001567  88.3072 271.8236 13.13471339247487
ONEWEB-0158             
1 48054U 21025N   26122.26940201  .00000167  00000+0  42355-3 0  9993
2 48054  87.8962 329.3632 0002039  81.7381 278.3980 13.13469908247603
ONEWEB-0157             
1 48055U 21025P   26122.06625177 -.00000202  00000+0 -58878-3 0  9993
2 48055  87.8966 329.4081 0001354  83.2103 276.9180 13.13471034247514
ONEWEB-0162             
1 48056U 21025Q   26122.27096101  .00000189  00000+0  48324-3 0  9993
2 48056  87.8959 329.3706 0001700  91.5874 268.5450 13.13470456247516
ONEWEB-0155             
1 48057U 21025R   26122.12550909 -.00000050  00000+0 -17091-3 0  9995
2 48057  87.8960 329.3957 0001625  80.8289 279.3024 13.13470070247636
ONEWEB-0149             
1 48058U 21025S   26122.29987693 -.00000257  00000+0 -73849-3 0  9990
2 48058  87.8964 329.3621 0001709  93.6533 266.4791 13.13470143247466
ONEWEB-0148             
1 48059U 21025T   26122.03410152  .00000381  00000+0  10085-2 0  9992
2 48059  87.8946 329.4257 0001486 105.2794 254.8499 13.13470391247555
ONEWEB-0160             
1 48060U 21025U   26122.12721225 -.00000152  00000+0 -45223-3 0  9991
2 48060  87.8957 329.4033 0002497  86.1205 274.0209 13.13469290247513
ONEWEB-0163             
1 48061U 21025V   26122.34049441  .00000242  00000+0  62665-3 0  9996
2 48061  87.8954 329.3539 0001459  83.0812 277.0484 13.13470535247666
ONEWEB-0159             
1 48062U 21025W   26122.02733682  .00000399  00000+0  10565-2 0  9993
2 48062  87.8966 329.4071 0001503  82.2141 277.9159 13.13472521247540
ONEWEB-0164             
1 48063U 21025X   26122.31342080  .00000076  00000+0  17275-3 0  9992
2 48063  87.8964 329.3565 0001803  85.4585 274.6750 13.13471209247561
ONEWEB-0167             
1 48064U 21025Y   26122.26517973  .00000253  00000+0  65693-3 0  9996
2 48064  87.8955 329.3805 0001577  63.8597 296.2695 13.13469505247542
ONEWEB-0166             
1 48065U 21025Z   26122.28801030 -.00000297  00000+0 -84809-3 0  9999
2 48065  87.8965 329.3421 0001582  91.4014 268.7297 13.13469147247628
ONEWEB-0151             
1 48066U 21025AA  26122.28971008 -.00000209  00000+0 -60825-3 0  9998
2 48066  87.8954 329.3639 0001732  81.8690 278.2635 13.13470496247562
ONEWEB-0170             
1 48067U 21025AB  26122.29818191 -.00000279  00000+0 -79798-3 0  9999
2 48067  87.8954 329.3641 0002085  77.4660 282.6703 13.13471328247522
ONEWEB-0168             
1 48068U 21025AC  26122.28294463 -.00000195  00000+0 -56823-3 0  9990
2 48068  87.8964 329.3629 0001556  86.2131 273.9176 13.13470221247532
ONEWEB-0173             
1 48069U 21025AD  26122.04594821  .00000055  00000+0  11474-3 0  9992
2 48069  87.8958 329.4145 0001415  77.5070 282.6218 13.13469988247744
ONEWEB-0171             
1 48070U 21025AE  26122.31171858  .00000079  00000+0  18175-3 0  9996
2 48070  87.8955 329.3708 0001744  83.4150 276.7178 13.13472250247595
ONEWEB-0172             
1 48071U 21025AF  26122.13903784 -.00000315  00000+0 -89654-3 0  9993
2 48071  87.8956 329.3929 0001662  80.9291 279.2026 13.13470006248463
ONEWEB-0174             
1 48072U 21025AG  26122.27278282  .00000075  00000+0  17123-3 0  9990
2 48072  87.8953 329.3670 0001635  90.4783 269.6533 13.13470349247809
ONEWEB-0175             
1 48073U 21025AH  26122.30325503 -.00000190  00000+0 -55540-3 0  9999
2 48073  87.8965 329.3416 0001861  76.0975 284.0361 13.13470289247460
ONEWEB-0177             
1 48074U 21025AJ  26122.31509101  .00000101  00000+0  24074-3 0  9997
2 48074  87.8958 329.3596 0001534  88.9282 271.2023 13.13472451247659
ONEWEB-0178             
1 48075U 21025AK  26121.95299080  .00000316  00000+0  83039-3 0  9993
2 48075  87.8945 329.4508 0001665  77.5147 282.6168 13.13469499247653
ONEWEB-0108             
1 48076U 21025AL  26122.29310448 -.00000274  00000+0 -78448-3 0  9997
2 48076  87.8966 329.3531 0001886  92.1728 267.9617 13.13470683247624
ONEWEB-0169             
1 48077U 21025AM  26122.32528339  .00000252  00000+0  65584-3 0  9993
2 48077  87.8956 329.3590 0001665  89.3058 270.8262 13.13471457246288
ONEWEB-0176             
1 48210U 21031A   26122.20383758 -.00000160  00000+0 -46639-3 0  9990
2 48210  87.8926 298.8753 0001704  89.4835 270.6490 13.14503738242278
ONEWEB-0184             
1 48211U 21031B   26122.40524262  .00000195  00000+0  49187-3 0  9997
2 48211  87.8939 298.8320 0001812  65.8491 294.2828 13.14503075242270
ONEWEB-0179             
1 48212U 21031C   26122.50003471  .00218490  00000+0  12673+0 0  9998
2 48212  87.8944 297.9272 0129994  43.3298 257.6996 14.03097824  5377
ONEWEB-0180             
1 48213U 21031D   26122.40842214  .00000990  00000+0  26353-2 0  9991
2 48213  87.8922 298.8304 0001376  89.2280 270.9008 13.14499889242208
ONEWEB-0218             
1 48214U 21031E   26122.43061068  .00000125  00000+0  30329-3 0  9994
2 48214  87.8930 298.8242 0001500  61.8657 298.2624 13.14501825242360
ONEWEB-0209             
1 48215U 21031F   26122.41952328 -.00000006  00000+0 -49596-4 0  9998
2 48215  87.8917 298.8484 0001531  95.4315 264.6989 13.14502369242367
ONEWEB-0198             
1 48216U 21031G   26122.47991296  .00000255  00000+0  65350-3 0  9991
2 48216  87.8915 298.8368 0001368  84.1684 275.9602 13.14502993242482
ONEWEB-0189             
1 48217U 21031H   26122.41634488  .00000055  00000+0  11455-3 0  9998
2 48217  87.8927 298.8306 0001468  86.0509 274.0788 13.14502881242218
ONEWEB-0196             
1 48218U 21031J   26122.47025541  .00000145  00000+0  35607-3 0  9994
2 48218  87.8926 298.8297 0001562  91.0013 269.1295 13.14503608242225
ONEWEB-0183             
1 48219U 21031K   26122.44487939 -.00000214  00000+0 -61175-3 0  9993
2 48219  87.8924 298.8336 0001785  99.3858 260.7473 13.14503355242317
ONEWEB-0185             
1 48220U 21031L   26122.47105491  .00000175  00000+0  43746-3 0  9996
2 48220  87.8933 298.8177 0001518 105.5766 254.5531 13.14503384242244
ONEWEB-0187             
1 48221U 21031M   26122.45109563 -.00000089  00000+0 -27453-3 0  9992
2 48221  87.8910 298.8451 0001507  95.6503 264.4798 13.14503407242253
ONEWEB-0192             
1 48222U 21031N   26122.42110527 -.00000011  00000+0 -64174-4 0  9999
2 48222  87.8918 298.8401 0001700  89.7113 270.4211 13.14502404242166
ONEWEB-0219             
1 48223U 21031P   26122.40047716  .00000250  00000+0  64033-3 0  9993
2 48223  87.8923 298.8346 0001518  97.8667 262.2635 13.14501761242368
ONEWEB-0202             
1 48224U 21031Q   26122.45755169  .00000004  00000+0 -23789-4 0  9999
2 48224  87.8925 298.8334 0001496  69.6938 290.4353 13.14504441242358
ONEWEB-0204             
1 48225U 21031R   26122.41554455  .00000105  00000+0  24759-3 0  9999
2 48225  87.8928 298.8366 0001779 102.9746 257.1583 13.14503479242242
ONEWEB-0205             
1 48226U 21031S   26122.46708185  .00000163  00000+0  40500-3 0  9992
2 48226  87.8929 298.8175 0001589  96.1381 263.9930 13.14503872242260
ONEWEB-0206             
1 48227U 21031T   26122.44011986 -.00000204  00000+0 -58484-3 0  9995
2 48227  87.8930 298.8254 0001962  92.8396 267.2959 13.14504526242215
ONEWEB-0182             
1 48228U 21031U   26122.43536772 -.00000218  00000+0 -62257-3 0  9998
2 48228  87.8925 298.8354 0001806  99.9332 260.2001 13.14503130242420
ONEWEB-0186             
1 48229U 21031V   26122.44646851 -.00000169  00000+0 -49058-3 0  9999
2 48229  87.8930 298.8216 0001635  93.7060 266.4257 13.14503987242379
ONEWEB-0181             
1 48230U 21031W   26122.42427815 -.00000094  00000+0 -28775-3 0  9996
2 48230  87.8916 298.8621 0001558  89.7120 270.4188 13.14502660242220
ONEWEB-0188             
1 48231U 21031X   26122.38622584  .00000082  00000+0  18559-3 0  9996
2 48231  87.8917 298.8681 0001707  93.9807 266.1518 13.14502160242126
ONEWEB-0220             
1 48232U 21031Y   26122.42584236 -.00000085  00000+0 -26350-3 0  9996
2 48232  87.8935 298.8265 0001544  97.8742 262.2563 13.14504130242390
ONEWEB-0165             
1 48233U 21031Z   26122.45439360 -.00000038  00000+0 -13752-3 0  9997
2 48233  87.8924 298.8366 0001482  84.0823 276.0476 13.14504070242355
ONEWEB-0199             
1 48234U 21031AA  26122.43853573 -.00000195  00000+0 -56123-3 0  9995
2 48234  87.8932 298.8226 0001911  93.6634 266.4714 13.14504083242254
ONEWEB-0203             
1 48235U 21031AB  26122.42902525 -.00000152  00000+0 -44420-3 0  9997
2 48235  87.8938 298.8274 0001795  87.4610 272.6725 13.14503442242269
ONEWEB-0197             
1 48236U 21031AC  26122.40351288  .00000225  00000+0  57114-3 0  9993
2 48236  87.8922 298.8244 0001844 103.0687 257.0649 13.14503574242172
ONEWEB-0194             
1 48237U 21031AD  26122.45915647  .00000067  00000+0  14660-3 0  9997
2 48237  87.8926 298.8330 0001927  88.7692 271.3658 13.14503136242353
ONEWEB-0193             
1 48238U 21031AE  26122.47501860  .00000252  00000+0  64510-3 0  9993
2 48238  87.8926 298.8210 0002119  86.9091 273.2281 13.14502859242307
ONEWEB-0191             
1 48239U 21031AF  26122.41000080  .00000176  00000+0  43984-3 0  9993
2 48239  87.8927 298.8305 0001791  98.7090 261.4242 13.14503896242150
ONEWEB-0195             
1 48240U 21031AG  26122.46313375  .00000121  00000+0  29291-3 0  9999
2 48240  87.8936 298.8187 0001402  84.4375 275.6914 13.14503523242146
ONEWEB-0201             
1 48241U 21031AH  26122.45135708 -.00000102  00000+0 -30999-3 0  9999
2 48241  87.8915 298.8427 0001568 105.5812 254.5491 13.14503798242370
ONEWEB-0207             
1 48242U 21031AJ  26122.43140194 -.00000147  00000+0 -43224-3 0  9997
2 48242  87.8936 298.8269 0001622 101.7454 258.3858 13.14503353242285
